BEIDOU 3 (C01)          
1 36287U 10001A   22183.88812204 -.00000273  00000+0  00000+0 0  9998
2 36287   1.9083  48.4924 0003894  28.6509 303.9118  1.00271777 45662
BEIDOU 5 (C06)          
1 36828U 10036A   22184.27441273 -.00000067  00000+0  00000+0 0  9996
2 36828  54.1986 176.0823 0030931 190.7146 118.6919  1.00294701 43739
BEIDOU 6 (C04)          
1 37210U 10057A   22183.89204605 -.00000104  00000+0  00000+0 0  9990
2 37210   0.8782  49.7752 0004068 129.5516 222.7184  1.00271618 42795
BEIDOU 7 (C07)          
1 37256U 10068A   22184.07090598 -.00000186  00000+0  00000+0 0  9997
2 37256  50.1721 289.4644 0022914 197.2748 283.8070  1.00302529 42303
BEIDOU 8 (C08)          
1 37384U 11013A   22183.59216152 -.00000171  00000+0  00000+0 0  9996
2 37384  60.3108  54.1092 0018251 182.8773   1.6213  1.00252455 41179
BEIDOU 9 (C09)          
1 37763U 11038A   22183.44886560 -.00000029  00000+0  00000+0 0  9996
2 37763  54.4782 178.5842 0098622 228.2655 130.8283  1.00276165 40153
BEIDOU 10 (C10)         
1 37948U 11073A   22183.76351433 -.00000142  00000+0  00000+0 0  9997
2 37948  50.3015 289.1064 0084158 217.9703 142.6849  1.00290843 38914
BEIDOU 11 (C05)         
1 38091U 12008A   22183.93382869  .00000066  00000+0  00000+0 0  9996
2 38091   1.5969  68.1727 0014351 338.8703 268.7321  1.00269530 37982
BEIDOU 12 (C11)         
1 38250U 12018A   22182.62238721 -.00000085  00000+0  00000+0 0  9998
2 38250  56.6918 353.0906 0020302 251.5960  98.6994  1.86234618 69342
BEIDOU 13 (C12)         
1 38251U 12018B   22183.38206764 -.00000081  00000+0  00000+0 0  9991
2 38251  56.6085 352.3895 0010920 253.7201 290.1096  1.86234080 69361
BEIDOU 15 (C14)         
1 38775U 12050B   22182.67746654 -.00000007  00000+0  00000+0 0  9994
2 38775  55.4079 111.2066 0015106 324.5489 303.0911  1.86231326 66727
BEIDOU 16 (C02)         
1 38953U 12059A   22184.45096634 -.00000167  00000+0  00000+0 0  9992
2 38953   2.0267  84.3341 0011062 303.4828 140.0364  1.00270718 35561
BEIDOU 17 (C31)         
1 40549U 15019A   22182.83894336 -.00000167  00000+0  00000+0 0  9990
2 40549  51.8641 312.5890 0036757 193.3371 168.9224  1.00293919 26589
BEIDOU 18 (C57)         
1 40748U 15037A   22184.05096279 -.00000079  00000+0  00000+0 0  9999
2 40748  55.8623 351.2252 0004714  48.5237 133.1680  1.86233257 47201
BEIDOU 19 (C58)         
1 40749U 15037B   22183.58445775 -.00000081  00000+0  00000+0 0  9999
2 40749  55.8618 351.2300 0003644   1.4149   1.9646  1.86232080 47196
BEIDOU 20 (C18)         
1 40938U 15053A   22183.78314005 -.00000118  00000+0  00000+0 0  9991
2 40938  51.4756 275.7005 0045486 196.9694 184.9191  1.00289661 24867
BEIDOU IGSO-6 (C13)     
1 41434U 16021A   22183.41627964 -.00000155  00000+0  00000+0 0  9991
2 41434  58.1201  52.6808 0043401 217.5455 256.1366  1.00280152 22984
BEIDOU-2 G7 (C03)       
1 41586U 16037A   22183.81048494 -.00000346  00000+0  00000+0 0  9997
2 41586   1.4067  65.7488 0008886 359.8292 257.5580  1.00274394 22297
BEIDOU-3 M1 (C19)       
1 43001U 17069A   22183.37673532 -.00000001  00000+0  00000+0 0  9993
2 43001  55.5618 111.1852 0011466 295.6452 237.1009  1.86231679 31672
BEIDOU-3 M2 (C20)       
1 43002U 17069B   22183.32900689 -.00000001  00000+0  00000+0 0  9995
2 43002  55.5615 111.2224 0009880 315.4592 228.2980  1.86231299 31663
BEIDOU-3 M3 (C27)       
1 43107U 18003A   22183.31834660 -.00000084  00000+0  00000+0 0  9995
2 43107  55.3118 352.1593 0005562  64.6647 278.0960  1.86232744 30427
BEIDOU-3 M4 (C28)       
1 43108U 18003B   22184.01654955 -.00000080  00000+0  00000+0 0  9997
2 43108  55.3040 352.1254 0001721 241.3240 253.3456  1.86230857 30443
BEIDOU-3 M5 (C21)       
1 43207U 18018A   22182.64983077 -.00000007  00000+0  00000+0 0  9999
2 43207  55.5207 111.3241 0007124 335.4052  24.5498  1.86231607 29806
BEIDOU-3 M6 (C22)       
1 43208U 18018B   22182.71647618 -.00000007  00000+0  00000+0 0  9996
2 43208  55.5198 111.3260 0009284 307.1889  52.7156  1.86231584 29808
BEIDOU-3 M7 (C29)       
1 43245U 18029A   22184.55264797 -.00000077  00000+0  00000+0 0  9993
2 43245  55.2242 349.8862 0001152  89.0190 271.7079  1.86232653 28993
BEIDOU-3 M8 (C30)       
1 43246U 18029B   22183.19073899 -.00000084  00000+0  10000-3 0  9997
2 43246  55.2210 349.9618 0004199  15.9042 198.2662  1.86232783 28958
BEIDOU IGSO-7 (C16)     
1 43539U 18057A   22182.82767911 -.00000073  00000+0  00000+0 0  9990
2 43539  55.0786 175.5740 0049640 227.9297 283.5770  1.00253818 14653
BEIDOU-3 M9 (C23)       
1 43581U 18062A   22182.58416171  .00000050  00000+0  00000+0 0  9999
2 43581  54.2706 231.6015 0004944 266.6223 111.9299  1.86231888 26693
BEIDOU-3 M10 (C24)      
1 43582U 18062B   22182.40685891  .00000050  00000+0  00000+0 0  9998
2 43582  54.2712 231.5972 0004107 346.4694   4.9907  1.86232136 26685
BEIDOU-3 M11 (C25)      
1 43602U 18067A   22183.42198983  .00000051  00000+0  00000+0 0  9991
2 43602  54.3533 230.1778 0006497   2.7965 350.6669  1.86231681 26192
BEIDOU-3 M12 (C26)      
1 43603U 18067B   22182.57323394  .00000052  00000+0  00000+0 0  9994
2 43603  54.3508 230.1736 0003801 346.0324  68.7501  1.86231638 26204
BEIDOU-3 M13 (C32)      
1 43622U 18072A   22183.79563384  .00000002  00000+0  00000+0 0  9996
2 43622  55.4884 110.8389 0008021 293.7320 249.8487  1.86231784 25739
BEIDOU-3 M14 (C33)      
1 43623U 18072B   22182.68100856 -.00000008  00000+0  00000+0 0  9992
2 43623  55.4890 110.8684 0006241 315.6253 290.8870  1.86231765 25715
BEIDOU-3 M15 (C34)      
1 43647U 18078A   22183.48561289 -.00000083  00000+0  10000-3 0  9992
2 43647  55.1209 350.0797 0006540  16.1790 305.3431  1.86232729 25239
BEIDOU-3 M16 (C35)      
1 43648U 18078B   22183.68255316 -.00000082  00000+0  00000+0 0  9990
2 43648  55.1159 350.0792 0004848  31.3457 329.9777  1.86232162 25266
BEIDOU-3 G1 (C59)       
1 43683U 18085A   22183.88803484 -.00000269  00000+0  00000+0 0  9991
2 43683   0.9039 163.4057 0003777 358.8767 218.2270  1.00278700 13563
BEIDOU-3 M17 (C36)      
1 43706U 18093A   22183.18583970  .00000049  00000+0  00000+0 0  9999
2 43706  54.3517 231.4663 0010322 271.0804  15.7489  1.86231958 24599
BEIDOU-3 M18 (C37)      
1 43707U 18093B   22182.89007964  .00000050  00000+0  00000+0 0  9993
2 43707  54.3538 231.4676 0008520 294.4970 245.2629  1.86232196 24598
BEIDOU-3 IGSO-1 (C38)   
1 44204U 19023A   22183.55118664 -.00000212  00000+0  00000+0 0  9995
2 44204  56.5825  52.8075 0018977 196.6486 345.8064  1.00253580 11866
BEIDOU-2 G8             
1 44231U 19027A   22183.88899404 -.00000239  00000+0  00000+0 0  9992
2 44231   0.8988  76.8101 0004856 111.2200 197.4446  1.00269971 11587
BEIDOU-3 IGSO-2 (C39)   
1 44337U 19035A   22183.88297721 -.00000085  00000+0  00000+0 0  9991
2 44337  55.1255 171.5858 0025815 194.5808 348.3723  1.00301063 11205
BEIDOU-3 M23 (C45)      
1 44542U 19061A   22183.23087335  .00000049  00000+0  00000+0 0  9994
2 44542  54.5799 231.6100 0008056 325.1004  34.9357  1.86231377 18869
BEIDOU-3 M24 (C46)      
1 44543U 19061B   22183.37832590  .00000049  00000+0  00000+0 0  9991
2 44543  54.5780 231.5744 0005464 310.7016  59.5224  1.86231670 18868
BEIDOU-3 IGSO-3         
1 44709U 19073A   22184.48501902 -.00000184  00000+0  10000-3 0  9997
2 44709  57.2410 296.2193 0023290 175.8906 100.1302  1.00251666  9956
BEIDOU-3 M21            
1 44793U 19078A   22183.57368927 -.00000083  00000+0  10000-3 0  9990
2 44793  54.9679 350.0968 0006593  22.6159 311.8262  1.86232230 17725
BEIDOU-3 M22            
1 44794U 19078B   22184.01438387 -.00000081  00000+0  00000+0 0  9992
2 44794  54.9418 350.0725 0004623  23.1710 158.4269  1.86232664 17733
BEIDOU-3 M19            
1 44864U 19090A   22184.26368709  .00000005  00000+0  00000+0 0  9996
2 44864  55.4230 111.0336 0017949 274.2451 268.9524  1.86231888 17321
BEIDOU-3 M20            
1 44865U 19090B   22183.58876044  .00000000  00000+0  00000+0 0  9992
2 44865  55.4246 111.0879 0016413 287.7931 252.7612  1.86231819 17286
BEIDOU-3 G2             
1 45344U 20017A   22184.45018154 -.00000132  00000+0  00000+0 0  9990
2 45344   2.0559 352.8197 0004692 118.5710  52.2054  1.00271676  8783
BEIDOU-3 G3             
1 45807U 20040A   22183.81048494 -.00000344  00000+0  00000+0 0  9994
2 45807   1.4077 303.6072 0006345 327.5859  51.8678  1.00265905  7586
